
use crate::metar::METAR;

#[test]
fn decode_metars() {
	
	for metar_str in vec!["KSAN 190751Z COR 26006KT 10SM FEW032 SCT055 BKN075 14/08 A2998 RMK AO2 RAB09E21 SLP150 VCSH P0000 T01440083 401670111",
						  "KTKI 130853Z AUTO 00000KT 10SM CLR 16/14 A3008 RMK AO2 SLP183 T01610144 53001",
						  "KMIA 191453Z 11015KT 10SM SCT026 28/19 A3030 RMK AO2 SLP259 60000 T02780189 53018",
						  "KHRL 191452Z 17023G31KT 10SM FEW018 27/21 A2990 RMK AO2 PK WND 15036/1433 SLP125 T02670211 52009 $",
						  "KLAX 191453Z VRB03KT 10SM FEW008 FEW022 SCT047 13/07 A3001 RMK AO2 SLP160 T01330067 53021",
						  "KFLG 191617Z 25011KT 3/4SM -SN BR VV011 M02/M03 A2997 RMK AO2 P0002 T10171033",
						  "KSWF 260445Z 24010KT 10SM SKC 03/03 A2975"] {
	
		let metar = METAR::from_string(metar_str);

		println!("\n{:?}", metar);

	}


}